start=new Date('2022-07-23T00:00:00.000Z').valueOf();
sats=[{"MEAN_MOTION":"15.06404230","MEAN_ANOMALY":"300.9847","RCS_SIZE":"LARGE","BSTAR":"0.00019150000000","COUNTRY_CODE":"US","CENTER_NAME":"EARTH","MEAN_MOTION_DOT":"0.00002572","NORAD_CAT_ID":"45695","EPHEMERIS_TYPE":"0","MEAN_MOTION_DDOT":"0.0000000000000","TLE_LINE1":"1 45695U 20035AQ  22203.80805488  .00002572  00000-0  19150-3 0  9994","TLE_LINE2":"2 45695  53.0538 228.7156 0001513  59.1291 300.9847 15.06404230119314","OBJECT_TYPE":"PAYLOAD","REF_FRAME":"TEME","ARG_OF_PERICENTER":"59.1291","SEMIMAJOR_AXIS":"6925.336","PERIOD":"95.592","INCLINATION":"53.0538","LAUNCH_DATE":"2020-06-04","OBJECT_NAME":"STARLINK-1420","DECAY_DATE":null,"RA_OF_ASC_NODE":"228.7156","OBJECT_ID":"2020-035AQ","EPOCH":"2022-07-22T19:23:35.941632","REV_AT_EPOCH":"11931","MEAN_ELEMENT_THEORY":"SGP4","GP_ID":"208667519","ECCENTRICITY":"0.00015130","CLASSIFICATION_TYPE":"U","ELEMENT_SET_NO":"999","APOAPSIS":"548.248","FILE":"3519932","PERIAPSIS":"546.153","TIME_SYSTEM":"UTC","SITE":"AFETR"},{"OBJECT_ID":"2020-035AR","RA_OF_ASC_NODE":"248.6793","REV_AT_EPOCH":"11902","EPOCH":"2022-07-22T19:38:15.643104","MEAN_ELEMENT_THEORY":"SGP4","OBJECT_NAME":"STARLINK-1422","LAUNCH_DATE":"2020-06-04","DECAY_DATE":null,"PERIAPSIS":"546.141","SITE":"AFETR","TIME_SYSTEM":"UTC","ELEMENT_SET_NO":"999","CLASSIFICATION_TYPE":"U","ECCENTRICITY":"0.00015990","GP_ID":"208667769","FILE":"3519932","APOAPSIS":"548.356","COUNTRY_CODE":"US","BSTAR":"-0.00001465400000","CENTER_NAME":"EARTH","MEAN_MOTION_DOT":"-0.00000500","EPHEMERIS_TYPE":"0","NORAD_CAT_ID":"45696","MEAN_MOTION_DDOT":"0.0000000000000","MEAN_MOTION":"15.06388716","RCS_SIZE":"LARGE","MEAN_ANOMALY":"290.3019","REF_FRAME":"TEME","ARG_OF_PERICENTER":"69.8141","SEMIMAJOR_AXIS":"6925.383","PERIOD":"95.593","INCLINATION":"53.0540","OBJECT_TYPE":"PAYLOAD","TLE_LINE2":"2 45696  53.0540 248.6793 0001599  69.8141 290.3019 15.06388716119023","TLE_LINE1":"1 45696U 20035AR  22203.81823661 -.00000500  00000-0 -14654-4 0  9995"},{"GP_ID":"208668020","ECCENTRICITY":"0.00020330","ELEMENT_SET_NO":"999","CLASSIFICATION_TYPE":"U","FILE":"3519932","APOAPSIS":"548.994","PERIAPSIS":"546.178","TIME_SYSTEM":"UTC","SITE":"AFETR","LAUNCH_DATE":"2020-06-04","OBJECT_NAME":"STARLINK-1351","DECAY_DATE":null,"RA_OF_ASC_NODE":"228.8072","OBJECT_ID":"2020-035AS","EPOCH":"2022-07-22T19:03:48.295872","REV_AT_EPOCH":"11931","MEAN_ELEMENT_THEORY":"SGP4","TLE_LINE1":"1 45697U 20035AS  22203.79430898  .00026611  00000-0  18045-2 0  9994","TLE_LINE2":"2 45697  53.0546 228.8072 0002033  62.8665 297.2531 15.06278452119310","OBJECT_TYPE":"PAYLOAD","ARG_OF_PERICENTER":"62.8665","REF_FRAME":"TEME","SEMIMAJOR_AXIS":"6925.721","PERIOD":"95.600","INCLINATION":"53.0546","MEAN_MOTION":"15.06278452","MEAN_ANOMALY":"297.2531","RCS_SIZE":"LARGE","BSTAR":"0.00180450000000","COUNTRY_CODE":"US","CENTER_NAME":"EARTH","MEAN_MOTION_DOT":"0.00026611","NORAD_CAT_ID":"45697","EPHEMERIS_TYPE":"0","MEAN_MOTION_DDOT":"0.0000000000000"},{"MEAN_MOTION":"15.06386305","MEAN_ANOMALY":"300.3141","RCS_SIZE":"LARGE","CENTER_NAME":"EARTH","MEAN_MOTION_DOT":"0.00002222","BSTAR":"0.00016805000000","COUNTRY_CODE":"US","MEAN_MOTION_DDOT":"0.0000000000000","NORAD_CAT_ID":"45698","EPHEMERIS_TYPE":"0","TLE_LINE1":"1 45698U 20035AT  22203.78227292  .00002222  00000-0  16805-3 0  9991","TLE_LINE2":"2 45698  53.0538 228.8414 0001185  59.7965 300.3141 15.06386305119317","OBJECT_TYPE":"PAYLOAD","ARG_OF_PERICENTER":"59.7965","REF_FRAME":"TEME","PERIOD":"95.593","INCLINATION":"53.0538","SEMIMAJOR_AXIS":"6925.391","LAUNCH_DATE":"2020-06-04","OBJECT_NAME":"STARLINK-1370","DECAY_DATE":null,"REV_AT_EPOCH":"11931","EPOCH":"2022-07-22T18:46:28.380288","RA_OF_ASC_NODE":"228.8414","OBJECT_ID":"2020-035AT","MEAN_ELEMENT_THEORY":"SGP4","ECCENTRICITY":"0.00011850","GP_ID":"208668751","ELEMENT_SET_NO":"999","CLASSIFICATION_TYPE":"U","FILE":"3519932","APOAPSIS":"548.076","PERIAPSIS":"546.435","TIME_SYSTEM":"UTC","SITE":"AFETR"},{"LAUNCH_DATE":"2020-06-04","OBJECT_NAME":"STARLINK-1398","DECAY_DATE":null,"OBJECT_ID":"2020-035AU","RA_OF_ASC_NODE":"230.0981","REV_AT_EPOCH":"11926","EPOCH":"2022-07-22T12:09:44.669664","MEAN_ELEMENT_THEORY":"SGP4","CLASSIFICATION_TYPE":"U","ELEMENT_SET_NO":"999","ECCENTRICITY":"0.00013780","GP_ID":"208667019","APOAPSIS":"548.196","FILE":"3519932","PERIAPSIS":"546.288","SITE":"AFETR","TIME_SYSTEM":"UTC","MEAN_MOTION":"15.06390713","RCS_SIZE":"LARGE","MEAN_ANOMALY":"277.0213","COUNTRY_CODE":"US","BSTAR":"0.00004818500000","CENTER_NAME":"EARTH","MEAN_MOTION_DOT":"0.00000436","EPHEMERIS_TYPE":"0","NORAD_CAT_ID":"45699","MEAN_MOTION_DDOT":"0.0000000000000","OBJECT_TYPE":"PAYLOAD","TLE_LINE2":"2 45699  53.0534 230.0981 0001378  83.0933 277.0213 15.06390713119269","TLE_LINE1":"1 45699U 20035AU  22203.50676701  .00000436  00000-0  48185-4 0  9997","ARG_OF_PERICENTER":"83.0933","REF_FRAME":"TEME","SEMIMAJOR_AXIS":"6925.377","INCLINATION":"53.0534","PERIOD":"95.593"},{"MEAN_ELEMENT_THEORY":"SGP4","EPOCH":"2022-07-22T18:26:35.626560","REV_AT_EPOCH":"11930","RA_OF_ASC_NODE":"228.9002","OBJECT_ID":"2020-035AV","DECAY_DATE":null,"LAUNCH_DATE":"2020-06-04","OBJECT_NAME":"STARLINK-1400","SITE":"AFETR","TIME_SYSTEM":"UTC","PERIAPSIS":"546.237","APOAPSIS":"548.182","FILE":"3519932","CLASSIFICATION_TYPE":"U","ELEMENT_SET_NO":"999","GP_ID":"208667269","ECCENTRICITY":"0.00014040","MEAN_MOTION_DDOT":"0.0000000000000","EPHEMERIS_TYPE":"0","NORAD_CAT_ID":"45700","CENTER_NAME":"EARTH","MEAN_MOTION_DOT":"0.00000956","COUNTRY_CODE":"US","BSTAR":"0.00008309000000","RCS_SIZE":"LARGE","MEAN_ANOMALY":"268.5825","MEAN_MOTION":"15.06401281","PERIOD":"95.592","INCLINATION":"53.0519","SEMIMAJOR_AXIS":"6925.345","REF_FRAME":"TEME","ARG_OF_PERICENTER":"91.5325","OBJECT_TYPE":"PAYLOAD","TLE_LINE1":"1 45700U 20035AV  22203.76846790  .00000956  00000-0  83090-4 0  9996","TLE_LINE2":"2 45700  53.0519 228.9002 0001404  91.5325 268.5825 15.06401281119306"},{"SITE":"AFETR","TIME_SYSTEM":"UTC","PERIAPSIS":"546.108","APOAPSIS":"548.360","FILE":"3519932","ELEMENT_SET_NO":"999","CLASSIFICATION_TYPE":"U","ECCENTRICITY":"0.00016260","GP_ID":"208668520","MEAN_ELEMENT_THEORY":"SGP4","RA_OF_ASC_NODE":"230.8669","OBJECT_ID":"2020-035AW","EPOCH":"2022-07-22T08:00:16.559136","REV_AT_EPOCH":"11923","DECAY_DATE":null,"LAUNCH_DATE":"2020-06-04","OBJECT_NAME":"STARLINK-1403","SEMIMAJOR_AXIS":"6925.369","PERIOD":"95.593","INCLINATION":"53.0544","ARG_OF_PERICENTER":"58.2988","REF_FRAME":"TEME","OBJECT_TYPE":"PAYLOAD","TLE_LINE1":"1 45701U 20035AW  22203.33352499  .00000722  00000-0  67399-4 0  9993","TLE_LINE2":"2 45701  53.0544 230.8669 0001626  58.2988 301.8159 15.06393280119239","EPHEMERIS_TYPE":"0","NORAD_CAT_ID":"45701","MEAN_MOTION_DDOT":"0.0000000000000","COUNTRY_CODE":"US","BSTAR":"0.00006739900000","MEAN_MOTION_DOT":"0.00000722","CENTER_NAME":"EARTH","RCS_SIZE":"LARGE","MEAN_ANOMALY":"301.8159","MEAN_MOTION":"15.06393280"},{"MEAN_MOTION_DOT":"0.00001827","CENTER_NAME":"EARTH","COUNTRY_CODE":"US","BSTAR":"0.00014153000000","MEAN_MOTION_DDOT":"0.0000000000000","EPHEMERIS_TYPE":"0","NORAD_CAT_ID":"45702","MEAN_MOTION":"15.06392271","RCS_SIZE":"LARGE","MEAN_ANOMALY":"296.7881","REF_FRAME":"TEME","ARG_OF_PERICENTER":"63.3267","PERIOD":"95.593","INCLINATION":"53.0539","SEMIMAJOR_AXIS":"6925.372","OBJECT_TYPE":"PAYLOAD","TLE_LINE1":"1 45702U 20035AX  22203.84586539  .00001827  00000-0  14153-3 0  9990","TLE_LINE2":"2 45702  53.0539 228.5604 0001555  63.3267 296.7881 15.06392271119317","EPOCH":"2022-07-22T20:18:02.769696","REV_AT_EPOCH":"11931","RA_OF_ASC_NODE":"228.5604","OBJECT_ID":"2020-035AX","MEAN_ELEMENT_THEORY":"SGP4","OBJECT_NAME":"STARLINK-1405","LAUNCH_DATE":"2020-06-04","DECAY_DATE":null,"PERIAPSIS":"546.160","SITE":"AFETR","TIME_SYSTEM":"UTC","ELEMENT_SET_NO":"999","CLASSIFICATION_TYPE":"U","ECCENTRICITY":"0.00015550","GP_ID":"208668253","APOAPSIS":"548.314","FILE":"3519932"},{"APOAPSIS":"548.186","FILE":"3519932","GP_ID":"208667520","ECCENTRICITY":"0.00014120","CLASSIFICATION_TYPE":"U","ELEMENT_SET_NO":"999","TIME_SYSTEM":"UTC","SITE":"AFETR","PERIAPSIS":"546.231","DECAY_DATE":null,"LAUNCH_DATE":"2020-06-04","OBJECT_NAME":"STARLINK-1407","MEAN_ELEMENT_THEORY":"SGP4","RA_OF_ASC_NODE":"230.3794","OBJECT_ID":"2020-035AY","REV_AT_EPOCH":"11925","EPOCH":"2022-07-22T10:39:30.309120","TLE_LINE2":"2 45703  53.0534 230.3794 0001412  77.0669 283.0477 15.06401620119256","TLE_LINE1":"1 45703U 20035AY  22203.44410080  .00000372  00000-0  43874-4 0  9991","OBJECT_TYPE":"PAYLOAD","SEMIMAJOR_AXIS":"6925.344","PERIOD":"95.592","INCLINATION":"53.0534","ARG_OF_PERICENTER":"77.0669","REF_FRAME":"TEME","MEAN_ANOMALY":"283.0477","RCS_SIZE":"LARGE","MEAN_MOTION":"15.06401620","NORAD_CAT_ID":"45703","EPHEMERIS_TYPE":"0","MEAN_MOTION_DDOT":"0.0000000000000","BSTAR":"0.00004387400000","COUNTRY_CODE":"US","MEAN_MOTION_DOT":"0.00000372","CENTER_NAME":"EARTH"},{"MEAN_MOTION_DDOT":"0.0000000000000","EPHEMERIS_TYPE":"0","NORAD_CAT_ID":"45704","MEAN_MOTION_DOT":"0.00000227","CENTER_NAME":"EARTH","COUNTRY_CODE":"US","BSTAR":"0.00003410300000","RCS_SIZE":"LARGE","MEAN_ANOMALY":"285.6580","MEAN_MOTION":"15.06402929","INCLINATION":"53.0547","PERIOD":"95.592","SEMIMAJOR_AXIS":"6925.340","REF_FRAME":"TEME","ARG_OF_PERICENTER":"74.4546","OBJECT_TYPE":"PAYLOAD","TLE_LINE1":"1 45704U 20035AZ  22203.86794776  .00000227  00000-0  34103-4 0  9999","TLE_LINE2":"2 45704  53.0547 258.4770 0001239  74.4546 285.6580 15.06402929118905","MEAN_ELEMENT_THEORY":"SGP4","EPOCH":"2022-07-22T20:49:50.686464","REV_AT_EPOCH":"11890","OBJECT_ID":"2020-035AZ","RA_OF_ASC_NODE":"258.4770","DECAY_DATE":null,"LAUNCH_DATE":"2020-06-04","OBJECT_NAME":"STARLINK-1409","SITE":"AFETR","TIME_SYSTEM":"UTC","PERIAPSIS":"546.347","APOAPSIS":"548.063","FILE":"3519932","CLASSIFICATION_TYPE":"U","ELEMENT_SET_NO":"999","ECCENTRICITY":"0.00012390","GP_ID":"208667770"}];
